0 SL-6 R/B(2)
1 09927U 77021D   13280.38754563 -.00000280  00000-0  00000+0 0   811
2 09927 064.1427 086.9931 7085221 246.3841 087.3336 02.01914813187669
0 SL-6 R/B(2)
1 09927U 77021D   13281.80587971 -.00000144  00000-0  00000+0 0   826
2 09927 064.1416 086.8164 7086084 246.3795 038.3024 02.01913137187691
0 SL-6 R/B(2)
1 09927U 77021D   13285.44674058  .00000283  00000-0  00000+0 0   837
2 09927 064.1396 086.3643 7088297 246.3661 164.7722 02.01910509187762
0 SL-6 R/B(2)
1 09927U 77021D   13294.10114257  .00001028  00000-0  00000+0 0   849
2 09927 064.1365 085.2868 7093420 246.3279 335.5099 02.01914463187942
